SAUDISAT 1C (SO-50)     
1 27607U 02058C   26159.32160852  .00001070  00000+0  14331-3 0  9999
2 27607  64.5503 156.4150 0075452 264.1037  95.1466 14.83027779263140
SAUDISAT 2              
1 28371U 04025F   26159.51148763  .00000305  00000+0  79149-4 0  9991
2 28371  98.5506 159.2692 0023972 325.9177  34.0480 14.56679018164486
SAUDISAT 3              
1 31118U 07012B   26159.35038829  .00000287  00000+0  54565-4 0  9990
2 31118  98.1452 109.7454 0013293 254.4641 105.5098 14.71420570 26444
PISAT                   
1 41784U 16059B   26159.49328747  .00001004  00000+0  17847-3 0  9996
2 41784  97.8178 160.3198 0027774 231.5012 128.3703 14.68969099518464
FLYING LAPTOP           
1 42831U 17042G   26159.51986329  .00003752  00000+0  29663-3 0  9993
2 42831  97.4657 315.3891 0019144 150.0384 210.1941 15.01089764485150
SALSAT                  
1 46495U 20068K   26158.98778249  .00008175  00000+0  28698-3 0  9996
2 46495  97.8853 161.4934 0008911 345.1768  14.9208 15.29667638313959
